[{"OBJECT_NAME":"ONEWEB-0124","OBJECT_ID":"2020-100N","EPOCH":"2025-10-13T08:10:17.450400","MEAN_MOTION":13.12442465,"ECCENTRICITY":0.0001509,"INCLINATION":87.896,"RA_OF_ASC_NODE":39.7211,"ARG_OF_PERICENTER":101.1535,"MEAN_ANOMALY":258.9763,"EPHEMERIS_TYPE":0,"CLASSIFICATION_TYPE":"U","NORAD_CAT_ID":47270,"ELEMENT_SET_NO":999,"REV_AT_EPOCH":23219,"BSTAR":-0.00090534341,"MEAN_MOTION_DOT":-3.13e-6,"MEAN_MOTION_DDOT":0},{"OBJECT_NAME":"ONEWEB-0125","OBJECT_ID":"2020-100P","EPOCH":"2025-10-13T07:37:35.136192","MEAN_MOTION":13.12443295,"ECCENTRICITY":0.00015823,"INCLINATION":87.8957,"RA_OF_ASC_NODE":39.6878,"ARG_OF_PERICENTER":91.5376,"MEAN_ANOMALY":268.5934,"EPHEMERIS_TYPE":0,"CLASSIFICATION_TYPE":"U","NORAD_CAT_ID":47271,"ELEMENT_SET_NO":999,"REV_AT_EPOCH":23225,"BSTAR":0.0009739554,"MEAN_MOTION_DOT":3.63e-6,"MEAN_MOTION_DDOT":0},{"OBJECT_NAME":"ONEWEB-0126","OBJECT_ID":"2020-100Q","EPOCH":"2025-10-13T08:08:09.453984","MEAN_MOTION":13.12441768,"ECCENTRICITY":0.00018037,"INCLINATION":87.8961,"RA_OF_ASC_NODE":39.707,"ARG_OF_PERICENTER":100.516,"MEAN_ANOMALY":259.6172,"EPHEMERIS_TYPE":0,"CLASSIFICATION_TYPE":"U","NORAD_CAT_ID":47272,"ELEMENT_SET_NO":999,"REV_AT_EPOCH":23232,"BSTAR":-0.00073483749,"MEAN_MOTION_DOT":-2.52e-6,"MEAN_MOTION_DDOT":0},{"OBJECT_NAME":"ONEWEB-0127","OBJECT_ID":"2020-100R","EPOCH":"2025-10-13T07:18:54.364032","MEAN_MOTION":13.12444273,"ECCENTRICITY":0.00018731,"INCLINATION":87.8958,"RA_OF_ASC_NODE":39.7247,"ARG_OF_PERICENTER":102.7563,"MEAN_ANOMALY":257.3775,"EPHEMERIS_TYPE":0,"CLASSIFICATION_TYPE":"U","NORAD_CAT_ID":47273,"ELEMENT_SET_NO":999,"REV_AT_EPOCH":23234,"BSTAR":0.0012781103,"MEAN_MOTION_DOT":4.73e-6,"MEAN_MOTION_DDOT":0},{"OBJECT_NAME":"ONEWEB-0128","OBJECT_ID":"2020-100S","EPOCH":"2025-10-13T07:51:35.980128","MEAN_MOTION":13.12442448,"ECCENTRICITY":0.00017253,"INCLINATION":87.8951,"RA_OF_ASC_NODE":39.742,"ARG_OF_PERICENTER":109.0435,"MEAN_ANOMALY":251.0881,"EPHEMERIS_TYPE":0,"CLASSIFICATION_TYPE":"U","NORAD_CAT_ID":47274,"ELEMENT_SET_NO":999,"REV_AT_EPOCH":23236,"BSTAR":0.00017747547,"MEAN_MOTION_DOT":7.7e-7,"MEAN_MOTION_DDOT":0},{"OBJECT_NAME":"ONEWEB-0129","OBJECT_ID":"2020-100T","EPOCH":"2025-10-13T07:21:14.852160","MEAN_MOTION":13.12443709,"ECCENTRICITY":0.00029131,"INCLINATION":87.8958,"RA_OF_ASC_NODE":39.6931,"ARG_OF_PERICENTER":102.7903,"MEAN_ANOMALY":257.3551,"EPHEMERIS_TYPE":0,"CLASSIFICATION_TYPE":"U","NORAD_CAT_ID":47275,"ELEMENT_SET_NO":999,"REV_AT_EPOCH":23229,"BSTAR":0.0013022756,"MEAN_MOTION_DOT":4.81e-6,"MEAN_MOTION_DDOT":0},{"OBJECT_NAME":"ONEWEB-0130","OBJECT_ID":"2020-100U","EPOCH":"2025-10-13T08:00:56.835360","MEAN_MOTION":13.12442027,"ECCENTRICITY":0.00017623,"INCLINATION":87.8958,"RA_OF_ASC_NODE":39.6841,"ARG_OF_PERICENTER":104.5936,"MEAN_ANOMALY":255.5388,"EPHEMERIS_TYPE":0,"CLASSIFICATION_TYPE":"U","NORAD_CAT_ID":47276,"ELEMENT_SET_NO":999,"REV_AT_EPOCH":23226,"BSTAR":-0.00033248367,"MEAN_MOTION_DOT":-1.07e-6,"MEAN_MOTION_DDOT":0},{"OBJECT_NAME":"ONEWEB-0131","OBJECT_ID":"2020-100V","EPOCH":"2025-10-13T07:56:16.861344","MEAN_MOTION":13.1244163,"ECCENTRICITY":0.00016894,"INCLINATION":87.8958,"RA_OF_ASC_NODE":39.7146,"ARG_OF_PERICENTER":103.0111,"MEAN_ANOMALY":257.1206,"EPHEMERIS_TYPE":0,"CLASSIFICATION_TYPE":"U","NORAD_CAT_ID":47277,"ELEMENT_SET_NO":999,"REV_AT_EPOCH":23230,"BSTAR":-0.00014741704,"MEAN_MOTION_DOT":-4.0e-7,"MEAN_MOTION_DDOT":0},{"OBJECT_NAME":"ONEWEB-0132","OBJECT_ID":"2020-100W","EPOCH":"2025-10-13T06:48:32.621760","MEAN_MOTION":13.12444834,"ECCENTRICITY":0.00017162,"INCLINATION":87.8956,"RA_OF_ASC_NODE":39.7257,"ARG_OF_PERICENTER":101.7535,"MEAN_ANOMALY":258.3786,"EPHEMERIS_TYPE":0,"CLASSIFICATION_TYPE":"U","NORAD_CAT_ID":47278,"ELEMENT_SET_NO":999,"REV_AT_EPOCH":23219,"BSTAR":-0.00037195543,"MEAN_MOTION_DOT":-1.21e-6,"MEAN_MOTION_DDOT":0},{"OBJECT_NAME":"ONEWEB-0133","OBJECT_ID":"2020-100X","EPOCH":"2025-10-13T07:11:42.450432","MEAN_MOTION":13.12443695,"ECCENTRICITY":0.00016836,"INCLINATION":87.8947,"RA_OF_ASC_NODE":39.6886,"ARG_OF_PERICENTER":106.0523,"MEAN_ANOMALY":254.0791,"EPHEMERIS_TYPE":0,"CLASSIFICATION_TYPE":"U","NORAD_CAT_ID":47279,"ELEMENT_SET_NO":999,"REV_AT_EPOCH":23235,"BSTAR":0.0011180274,"MEAN_MOTION_DOT":4.15e-6,"MEAN_MOTION_DDOT":0},{"OBJECT_NAME":"ONEWEB-0134","OBJECT_ID":"2020-100Y","EPOCH":"2025-10-13T06:27:30.687552","MEAN_MOTION":13.12442794,"ECCENTRICITY":0.0001836,"INCLINATION":87.8958,"RA_OF_ASC_NODE":39.6856,"ARG_OF_PERICENTER":108.5298,"MEAN_ANOMALY":251.6031,"EPHEMERIS_TYPE":0,"CLASSIFICATION_TYPE":"U","NORAD_CAT_ID":47280,"ELEMENT_SET_NO":999,"REV_AT_EPOCH":23232,"BSTAR":-0.0010329876,"MEAN_MOTION_DOT":-3.59e-6,"MEAN_MOTION_DDOT":0},{"OBJECT_NAME":"ONEWEB-0135","OBJECT_ID":"2020-100Z","EPOCH":"2025-10-13T07:35:16.138464","MEAN_MOTION":13.12442576,"ECCENTRICITY":0.00018012,"INCLINATION":87.8961,"RA_OF_ASC_NODE":39.7166,"ARG_OF_PERICENTER":115.5305,"MEAN_ANOMALY":244.601,"EPHEMERIS_TYPE":0,"CLASSIFICATION_TYPE":"U","NORAD_CAT_ID":47281,"ELEMENT_SET_NO":999,"REV_AT_EPOCH":23235,"BSTAR":0.0012422765,"MEAN_MOTION_DOT":4.6e-6,"MEAN_MOTION_DDOT":0},{"OBJECT_NAME":"ONEWEB-0136","OBJECT_ID":"2020-100AA","EPOCH":"2025-10-13T08:03:17.351136","MEAN_MOTION":13.12443042,"ECCENTRICITY":0.00020115,"INCLINATION":87.8958,"RA_OF_ASC_NODE":39.6813,"ARG_OF_PERICENTER":111.5627,"MEAN_ANOMALY":248.5716,"EPHEMERIS_TYPE":0,"CLASSIFICATION_TYPE":"U","NORAD_CAT_ID":47282,"ELEMENT_SET_NO":999,"REV_AT_EPOCH":23228,"BSTAR":-0.00052495569,"MEAN_MOTION_DOT":-1.76e-6,"MEAN_MOTION_DDOT":0},{"OBJECT_NAME":"ONEWEB-0137","OBJECT_ID":"2020-100AB","EPOCH":"2025-10-13T07:02:33.315360","MEAN_MOTION":13.12445001,"ECCENTRICITY":0.00018626,"INCLINATION":87.8957,"RA_OF_ASC_NODE":39.6954,"ARG_OF_PERICENTER":95.5787,"MEAN_ANOMALY":264.5554,"EPHEMERIS_TYPE":0,"CLASSIFICATION_TYPE":"U","NORAD_CAT_ID":47283,"ELEMENT_SET_NO":999,"REV_AT_EPOCH":23218,"BSTAR":0.00069406161,"MEAN_MOTION_DOT":2.62e-6,"MEAN_MOTION_DDOT":0},{"OBJECT_NAME":"ONEWEB-0138","OBJECT_ID":"2020-100AC","EPOCH":"2025-10-13T06:32:10.893984","MEAN_MOTION":13.12442595,"ECCENTRICITY":0.00018549,"INCLINATION":87.8957,"RA_OF_ASC_NODE":39.7093,"ARG_OF_PERICENTER":106.0176,"MEAN_ANOMALY":254.1157,"EPHEMERIS_TYPE":0,"CLASSIFICATION_TYPE":"U","NORAD_CAT_ID":47284,"ELEMENT_SET_NO":999,"REV_AT_EPOCH":23226,"BSTAR":-0.00092400456,"MEAN_MOTION_DOT":-3.2e-6,"MEAN_MOTION_DDOT":0},{"OBJECT_NAME":"ONEWEB-0139","OBJECT_ID":"2020-100AD","EPOCH":"2025-10-13T07:28:27.490656","MEAN_MOTION":13.12444305,"ECCENTRICITY":0.00017309,"INCLINATION":87.8953,"RA_OF_ASC_NODE":39.6916,"ARG_OF_PERICENTER":101.1272,"MEAN_ANOMALY":259.0051,"EPHEMERIS_TYPE":0,"CLASSIFICATION_TYPE":"U","NORAD_CAT_ID":47285,"ELEMENT_SET_NO":999,"REV_AT_EPOCH":23234,"BSTAR":0.0012972871,"MEAN_MOTION_DOT":4.79e-6,"MEAN_MOTION_DDOT":0}]
