ONEWEB-0124             
1 47270U 20100N   25286.34047975 -.00000313  00000+0 -90534-3 0  9997
2 47270  87.8960  39.7211 0001509 101.1535 258.9763 13.12442465232193
ONEWEB-0125             
1 47271U 20100P   25286.31776778  .00000363  00000+0  97396-3 0  9991
2 47271  87.8957  39.6878 0001582  91.5376 268.5934 13.12443295232250
ONEWEB-0126             
1 47272U 20100Q   25286.33899831 -.00000252  00000+0 -73484-3 0  9991
2 47272  87.8961  39.7070 0001803 100.5160 259.6172 13.12441768232325
ONEWEB-0127             
1 47273U 20100R   25286.30479588  .00000473  00000+0  12781-2 0  9997
2 47273  87.8958  39.7247 0001873 102.7563 257.3775 13.12444273232346
ONEWEB-0128             
1 47274U 20100S   25286.32749977  .00000077  00000+0  17748-3 0  9991
2 47274  87.8951  39.7420 0001725 109.0435 251.0881 13.12442448232360
ONEWEB-0129             
1 47275U 20100T   25286.30642190  .00000481  00000+0  13023-2 0  9999
2 47275  87.8958  39.6931 0002913 102.7903 257.3551 13.12443709232290
ONEWEB-0130             
1 47276U 20100U   25286.33399115 -.00000107  00000+0 -33248-3 0  9998
2 47276  87.8958  39.6841 0001762 104.5936 255.5388 13.12442027232265
ONEWEB-0131             
1 47277U 20100V   25286.33075071 -.00000040  00000+0 -14742-3 0  9995
2 47277  87.8958  39.7146 0001689 103.0111 257.1206 13.12441630232303
ONEWEB-0132             
1 47278U 20100W   25286.28371090 -.00000121  00000+0 -37196-3 0  9998
2 47278  87.8956  39.7257 0001716 101.7535 258.3786 13.12444834232193
ONEWEB-0133             
1 47279U 20100X   25286.29979688  .00000415  00000+0  11180-2 0  9995
2 47279  87.8947  39.6886 0001683 106.0523 254.0791 13.12443695232350
ONEWEB-0134             
1 47280U 20100Y   25286.26910518 -.00000359  00000+0 -10330-2 0  9996
2 47280  87.8958  39.6856 0001836 108.5298 251.6031 13.12442794232323
ONEWEB-0135             
1 47281U 20100Z   25286.31615901  .00000460  00000+0  12423-2 0  9997
2 47281  87.8961  39.7166 0001801 115.5305 244.6010 13.12442576232352
ONEWEB-0136             
1 47282U 20100AA  25286.33561749 -.00000176  00000+0 -52496-3 0  9991
2 47282  87.8958  39.6813 0002011 111.5627 248.5716 13.12443042232281
ONEWEB-0137             
1 47283U 20100AB  25286.29344115  .00000262  00000+0  69406-3 0  9996
2 47283  87.8957  39.6954 0001862  95.5787 264.5554 13.12445001232182
ONEWEB-0138             
1 47284U 20100AC  25286.27234831 -.00000320  00000+0 -92400-3 0  9995
2 47284  87.8957  39.7093 0001854 106.0176 254.1157 13.12442595232267
ONEWEB-0139             
1 47285U 20100AD  25286.31142929  .00000479  00000+0  12973-2 0  9996
2 47285  87.8953  39.6916 0001730 101.1272 259.0051 13.12444305232340
